{"type": "FeatureCollection", "features": [{"type": "Feature", "properties": {"norad_id": 22490, "name": "SCD 1", "group": "resource", "lat": -23.640320878491465, "lon": -148.88413356859527, "alt_km": 714.1427394991224, "timestamp": "2025-12-12T07:43:20.159856+00:00", "meta": {"OBJECT_NAME": "SCD 1", "OBJECT_ID": "1993-009B", "EPOCH": "2025-12-11T22:17:24.538272", "MEAN_MOTION": 14.45998255, "ECCENTRICITY": 0.00417748, "INCLINATION": 24.9701, "RA_OF_ASC_NODE": 283.6937, "ARG_OF_PERICENTER": 316.4075, "MEAN_ANOMALY": 82.0038, "EPHEMERIS_TYPE": 0, "CLASSIFICATION_TYPE": "U", "NORAD_CAT_ID": 22490, "ELEMENT_SET_NO": 999, "REV_AT_EPOCH": 73398, "BSTAR": 0.00015346647, "MEAN_MOTION_DOT": 7.47e-06, "MEAN_MOTION_DDOT": 0}, "tle": {"line1": "1 22490U 93009B   25345.92875623  .00000747  00000+0  15347-3 0  9999", "line2": "2 22490  24.9701 283.6937 0041774 316.4075  82.0038 14.45998255733982"}}, "geometry": {"type": "Point", "coordinates": [-148.88413356859527, -23.640320878491465]}}, {"type": "Feature", "properties": {"norad_id": 25397, "name": "TECHSAT 1B (GO-32)", "group": "resource", "lat": -7.052549680531197, "lon": 148.40169941939425, "alt_km": 815.3224355330822, "timestamp": "2025-12-12T07:43:20.159891+00:00", "meta": {"OBJECT_NAME": "TECHSAT 1B (GO-32)", "OBJECT_ID": "1998-043D", "EPOCH": "2025-12-11T20:43:54.501600", "MEAN_MOTION": 14.24376641, "ECCENTRICITY": 0.00020734, "INCLINATION": 98.992, "RA_OF_ASC_NODE": 329.0557, "ARG_OF_PERICENTER": 58.7319, "MEAN_ANOMALY": 301.4062, "EPHEMERIS_TYPE": 0, "CLASSIFICATION_TYPE": "U", "NORAD_CAT_ID": 25397, "ELEMENT_SET_NO": 999, "REV_AT_EPOCH": 42466, "BSTAR": 9.2349616e-05, "MEAN_MOTION_DOT": 1.67e-06, "MEAN_MOTION_DDOT": 0}, "tle": {"line1": "1 25397U 98043D   25345.86382525  .00000167  00000+0  92350-4 0  9994", "line2": "2 25397  98.9920 329.0557 0002073  58.7319 301.4062 14.24376641424667"}}, "geometry": {"type": "Point", "coordinates": [148.40169941939425, -7.052549680531197]}}, {"type": "Feature", "properties": {"norad_id": 25504, "name": "SCD 2", "group": "resource", "lat": -15.29796482718226, "lon": 108.51992780528481, "alt_km": 728.8482147907389, "timestamp": "2025-12-12T07:43:20.159907+00:00", "meta": {"OBJECT_NAME": "SCD 2", "OBJECT_ID": "1998-060A", "EPOCH": "2025-12-11T19:15:45.408960", "MEAN_MOTION": 14.45422604, "ECCENTRICITY": 0.00166284, "INCLINATION": 24.9932, "RA_OF_ASC_NODE": 147.6746, "ARG_OF_PERICENTER": 303.6253, "MEAN_ANOMALY": 190.8041, "EPHEMERIS_TYPE": 0, "CLASSIFICATION_TYPE": "U", "NORAD_CAT_ID": 25504, "ELEMENT_SET_NO": 999, "REV_AT_EPOCH": 43318, "BSTAR": 0.00011789504, "MEAN_MOTION_DOT": 6.04e-06, "MEAN_MOTION_DDOT": 0}, "tle": {"line1": "1 25504U 98060A   25345.80260890  .00000604  00000+0  11790-3 0  9991", "line2": "2 25504  24.9932 147.6746 0016628 303.6253 190.8041 14.45422604433181"}}, "geometry": {"type": "Point", "coordinates": [108.51992780528481, -15.29796482718226]}}, {"type": "Feature", "properties": {"norad_id": 25757, "name": "DLR-TUBSAT", "group": "resource", "lat": 3.1544240799226717, "lon": -29.658430577371167, "alt_km": 730.1523378655911, "timestamp": "2025-12-12T07:43:20.159921+00:00", "meta": {"OBJECT_NAME": "DLR-TUBSAT", "OBJECT_ID": "1999-029B", "EPOCH": "2025-12-11T23:26:25.172736", "MEAN_MOTION": 14.52357252, "ECCENTRICITY": 0.00138491, "INCLINATION": 98.6562, "RA_OF_ASC_NODE": 330.4669, "ARG_OF_PERICENTER": 195.187, "MEAN_ANOMALY": 164.8911, "EPHEMERIS_TYPE": 0, "CLASSIFICATION_TYPE": "U", "NORAD_CAT_ID": 25757, "ELEMENT_SET_NO": 999, "REV_AT_EPOCH": 40607, "BSTAR": 7.3949113e-05, "MEAN_MOTION_DOT": 2.53e-06, "MEAN_MOTION_DDOT": 0}, "tle": {"line1": "1 25757U 99029B   25345.97668024  .00000253  00000+0  73949-4 0  9991", "line2": "2 25757  98.6562 330.4669 0013849 195.1870 164.8911 14.52357252406074"}}, "geometry": {"type": "Point", "coordinates": [-29.658430577371167, 3.1544240799226717]}}, {"type": "Feature", "properties": {"norad_id": 25994, "name": "TERRA", "group": "resource", "lat": 52.82379375229279, "lon": 27.369112524834325, "alt_km": 683.4094691355021, "timestamp": "2025-12-12T07:43:20.159934+00:00", "meta": {"OBJECT_NAME": "TERRA", "OBJECT_ID": "1999-068A", "EPOCH": "2025-12-11T23:48:37.056384", "MEAN_MOTION": 14.60900594, "ECCENTRICITY": 0.00036046, "INCLINATION": 97.975, "RA_OF_ASC_NODE": 37.704, "ARG_OF_PERICENTER": 95.9925, "MEAN_ANOMALY": 24.9135, "EPHEMERIS_TYPE": 0, "CLASSIFICATION_TYPE": "U", "NORAD_CAT_ID": 25994, "ELEMENT_SET_NO": 999, "REV_AT_EPOCH": 38227, "BSTAR": 0.00016807083, "MEAN_MOTION_DOT": 7.78e-06, "MEAN_MOTION_DDOT": 0}, "tle": {"line1": "1 25994U 99068A   25345.99209556  .00000778  00000+0  16807-3 0  9991", "line2": "2 25994  97.9750  37.7040 0003604  95.9925  24.9135 14.60900594382275"}}, "geometry": {"type": "Point", "coordinates": [27.369112524834325, 52.82379375229279]}}, {"type": "Feature", "properties": {"norad_id": 27004, "name": "MAROC-TUBSAT", "group": "resource", "lat": 1.4907268148782304, "lon": -24.983277557683543, "alt_km": 999.509755596725, "timestamp": "2025-12-12T07:43:20.159946+00:00", "meta": {"OBJECT_NAME": "MAROC-TUBSAT", "OBJECT_ID": "2001-056D", "EPOCH": "2025-12-12T00:23:36.400992", "MEAN_MOTION": 13.70252839, "ECCENTRICITY": 0.00190945, "INCLINATION": 99.7912, "RA_OF_ASC_NODE": 154.4487, "ARG_OF_PERICENTER": 262.0576, "MEAN_ANOMALY": 210.9637, "EPHEMERIS_TYPE": 0, "CLASSIFICATION_TYPE": "U", "NORAD_CAT_ID": 27004, "ELEMENT_SET_NO": 999, "REV_AT_EPOCH": 20055, "BSTAR": 4.7465717e-05, "MEAN_MOTION_DOT": -5e-08, "MEAN_MOTION_DDOT": 0}, "tle": {"line1": "1 27004U 01056D   25346.01639353 -.00000005  00000+0  47466-4 0  9991", "line2": "2 27004  99.7912 154.4487 0019094 262.0576 210.9637 13.70252839200556"}}, "geometry": {"type": "Point", "coordinates": [-24.983277557683543, 1.4907268148782304]}}, {"type": "Feature", "properties": {"norad_id": 27424, "name": "AQUA", "group": "resource", "lat": -70.81083852731388, "lon": -27.669905194654977, "alt_km": 695.3581687643473, "timestamp": "2025-12-12T07:43:20.159958+00:00", "meta": {"OBJECT_NAME": "AQUA", "OBJECT_ID": "2002-022A", "EPOCH": "2025-12-12T00:11:17.276640", "MEAN_MOTION": 14.61806279, "ECCENTRICITY": 0.00010552, "INCLINATION": 98.4037, "RA_OF_ASC_NODE": 306.8749, "ARG_OF_PERICENTER": 115.6562, "MEAN_ANOMALY": 320.6515, "EPHEMERIS_TYPE": 0, "CLASSIFICATION_TYPE": "U", "NORAD_CAT_ID": 27424, "ELEMENT_SET_NO": 999, "REV_AT_EPOCH": 25592, "BSTAR": 0.00036110604, "MEAN_MOTION_DOT": 1.754e-05, "MEAN_MOTION_DDOT": 0}, "tle": {"line1": "1 27424U 02022A   25346.00783885  .00001754  00000+0  36111-3 0  9995", "line2": "2 27424  98.4037 306.8749 0001055 115.6562 320.6515 14.61806279255925"}}, "geometry": {"type": "Point", "coordinates": [-27.669905194654977, -70.81083852731388]}}, {"type": "Feature", "properties": {"norad_id": 28051, "name": "IRS-P6 (RESOURCESAT-1)", "group": "resource", "lat": -10.593305001158798, "lon": -154.80128741203697, "alt_km": 730.4207595995467, "timestamp": "2025-12-12T07:43:20.159969+00:00", "meta": {"OBJECT_NAME": "IRS-P6 (RESOURCESAT-1)", "OBJECT_ID": "2003-046A", "EPOCH": "2025-12-12T00:39:59.385024", "MEAN_MOTION": 14.36074635, "ECCENTRICITY": 0.00640682, "INCLINATION": 98.2178, "RA_OF_ASC_NODE": 26.4671, "ARG_OF_PERICENTER": 182.8031, "MEAN_ANOMALY": 288.6617, "EPHEMERIS_TYPE": 0, "CLASSIFICATION_TYPE": "U", "NORAD_CAT_ID": 28051, "ELEMENT_SET_NO": 999, "REV_AT_EPOCH": 15366, "BSTAR": 0.00014654044, "MEAN_MOTION_DOT": 3.95e-06, "MEAN_MOTION_DDOT": 0}, "tle": {"line1": "1 28051U 03046A   25346.02777066  .00000395  00000+0  14654-3 0  9993", "line2": "2 28051  98.2178  26.4671 0064068 182.8031 288.6617 14.36074635153664"}}, "geometry": {"type": "Point", "coordinates": [-154.80128741203697, -10.593305001158798]}}, {"type": "Feature", "properties": {"norad_id": 28220, "name": "SHIYAN-1 (SY-1)", "group": "resource", "lat": -72.52677791809086, "lon": 73.98532103573712, "alt_km": 485.82723184864153, "timestamp": "2025-12-12T07:43:20.159981+00:00", "meta": {"OBJECT_NAME": "SHIYAN-1 (SY-1)", "OBJECT_ID": "2004-012A", "EPOCH": "2025-12-11T10:02:42.167904", "MEAN_MOTION": 15.28090216, "ECCENTRICITY": 0.00056618, "INCLINATION": 97.8931, "RA_OF_ASC_NODE": 46.8783, "ARG_OF_PERICENTER": 331.221, "MEAN_ANOMALY": 28.8715, "EPHEMERIS_TYPE": 0, "CLASSIFICATION_TYPE": "U", "NORAD_CAT_ID": 28220, "ELEMENT_SET_NO": 999, "REV_AT_EPOCH": 18236, "BSTAR": 0.00087047445, "MEAN_MOTION_DOT": 0.00023824, "MEAN_MOTION_DDOT": 0}, "tle": {"line1": "1 28220U 04012A   25345.41854361  .00023824  00000+0  87047-3 0  9999", "line2": "2 28220  97.8931  46.8783 0005661 331.2210  28.8715 15.28090216182364"}}, "geometry": {"type": "Point", "coordinates": [73.98532103573712, -72.52677791809086]}}, {"type": "Feature", "properties": {"norad_id": 28376, "name": "AURA", "group": "resource", "lat": 58.85365865678923, "lon": -77.46395886993487, "alt_km": 683.7007655962489, "timestamp": "2025-12-12T07:43:20.159992+00:00", "meta": {"OBJECT_NAME": "AURA", "OBJECT_ID": "2004-026A", "EPOCH": "2025-12-11T23:13:49.671264", "MEAN_MOTION": 14.60944021, "ECCENTRICITY": 0.00012228, "INCLINATION": 98.3184, "RA_OF_ASC_NODE": 296.1909, "ARG_OF_PERICENTER": 94.0894, "MEAN_ANOMALY": 266.0446, "EPHEMERIS_TYPE": 0, "CLASSIFICATION_TYPE": "U", "NORAD_CAT_ID": 28376, "ELEMENT_SET_NO": 999, "REV_AT_EPOCH": 13887, "BSTAR": 0.00037186347, "MEAN_MOTION_DOT": 1.774e-05, "MEAN_MOTION_DDOT": 0}, "tle": {"line1": "1 28376U 04026A   25345.96793601  .00001774  00000+0  37186-3 0  9994", "line2": "2 28376  98.3184 296.1909 0001222  94.0894 266.0446 14.60944021138874"}}, "geometry": {"type": "Point", "coordinates": [-77.46395886993487, 58.85365865678923]}}]}